LANDSAT 9               
1 49260U 21088A   24156.74158793  .00000814  00000+0  19056-3 0  9998
2 49260  98.1874 226.5712 0001029  92.1006 268.0311 14.57116837142871
